ORBCOMM FM05 [-]        
1 25117U 97084F   23358.34877015  .00003073  00000+0  97294-3 0  9996
2 25117  45.0156  76.0923 0001159 336.8823  23.1975 14.41902271362442
ORBCOMM FM06 [+]        
1 25118U 97084G   23358.61548656  .00003351  00000+0  10575-2 0  9998
2 25118  45.0152  74.9982 0000681 303.4753 215.4172 14.41875958363393
ORBCOMM FM07 [-]        
1 25119U 97084H   23358.56940821  .00003079  00000+0  97633-3 0  9991
2 25119  45.0142  75.6860 0002401 341.4216  18.6546 14.41815360363382
ORBCOMM FM03 [-]        
1 25158U 98007B   23358.26372627  .00002174  00000+0  85396-3 0  9998
2 25158 107.9734 106.8012 0045661 115.0215 245.5674 14.31624397346555
ORBCOMM FM04 [+]        
1 25159U 98007C   23358.27711641  .00002360  00000+0  92004-3 0  9994
2 25159 107.9718 109.6729 0041081 112.9767 247.5713 14.31887084346723
ORBCOMM FM17 [-]        
1 25413U 98046A   23358.23188371  .00001723  00000+0  67969-3 0  9998
2 25413  44.9956 285.4406 0003233   0.7062 359.3788 14.32638895325539
ORBCOMM FM18 [-]        
1 25414U 98046B   23358.62332166  .00001907  00000+0  70906-3 0  9994
2 25414  44.9928 213.5290 0004744  78.4383 281.6996 14.35235647326505
ORBCOMM FM19 [+]        
1 25415U 98046C   23358.04694674  .00001834  00000+0  68607-3 0  9990
2 25415  44.9936 217.4802 0003454  68.9385  85.5094 14.35085409326385
